NORAD_CAT_ID,OBJECT_NAME,OBJECT_TYPE,EPOCH,MEAN_MOTION,ECCENTRICITY,INCLINATION,RA_OF_ASC_NODE,ARG_OF_PERICENTER,MEAN_ANOMALY,BSTAR,MEAN_MOTION_DOT,MEAN_MOTION_DDOT,TLE_LINE0,TLE_LINE1,TLE_LINE2,SEMIMAJOR_AXIS,PERIOD,APOGEE,PERIGEE,DECAYED
50834.0,STARLINK-3331,PAYLOAD,2023-01-25 20:04:12,15.08839541,0.0001183,53.2157,251.6331,88.8367,271.2761,-5.711600000000001e-05,-1.197e-05,0.0,0 STARLINK-3331,1 50834U 22001AH  23025.83625576 -.00001197  00000-0 -57116-4 0  9993,2 50834  53.2157 251.6331 0001183  88.8367 271.2761 15.08839541 59610,6917.882,95.438,540.565,538.928,0.0
50834.0,STARLINK-3331,PAYLOAD,2023-01-26 13:33:27,15.08837034,0.0001134,53.2146,248.3641,91.8377,268.2745,6.7455e-05,7.86e-06,0.0,0 STARLINK-3331,1 50834U 22001AH  23026.56489783  .00000786  00000-0  67455-4 0  9990,2 50834  53.2146 248.3641 0001134  91.8377 268.2745 15.08837034 58449,6917.889,95.438,540.539,538.97,0.0
50834.0,STARLINK-3331,PAYLOAD,2023-01-26 21:30:22,15.08841509,0.0001072,53.2147,246.8774,91.9401,268.1714,6.3927e-05,7.299999999999999e-06,0.0,0 STARLINK-3331,1 50834U 22001AH  23026.89609581  .00000730  00000-0  63927-4 0  9995,2 50834  53.2147 246.8774 0001072  91.9401 268.1714 15.08841509 59774,6917.876,95.437,540.482,538.999,0.0
50834.0,STARLINK-3331,PAYLOAD,2023-01-27 00:41:08,15.08842849,0.0001077,53.2146,246.2821,97.5018,262.6096,5.986e-05,6.65e-06,0.0,0 STARLINK-3331,1 50834U 22001AH  23027.02857487  .00000665  00000-0  59860-4 0  9999,2 50834  53.2146 246.2821 0001077  97.5018 262.6096 15.08842849 58512,6917.871999999999,95.437,540.482,538.992,0.0
50834.0,STARLINK-3331,PAYLOAD,2023-01-27 19:45:47,15.08833653,0.0001137,53.2147,242.7133,96.9854,263.1267,3.1899e-05,2.2e-06,0.0,0 STARLINK-3331,1 50834U 22001AH  23027.82346173  .00000220  00000-0  31899-4 0  9991,2 50834  53.2147 242.7133 0001137  96.9854 263.1267 15.08833653 59912,6917.9,95.438,540.5509999999999,538.9780000000001,0.0
50834.0,STARLINK-3331,PAYLOAD,2023-01-27 21:21:10,15.08834833,0.0001072999999999,53.2152,242.4167,88.6496,271.4619,7.935e-05,9.75e-06,0.0,0 STARLINK-3331,1 50834U 22001AH  23027.88970347  .00000975  00000-0  79350-4 0  9994,2 50834  53.2152 242.4167 0001073  88.6496 271.4619 15.08834833 58644,6917.896,95.438,540.503,539.019,0.0
50834.0,STARLINK-3331,PAYLOAD,2023-01-28 13:15:01,15.08835627,0.0001133,53.2155,239.4434,91.9923,268.1199,8.7365e-05,1.103e-05,0.0,0 STARLINK-3331,1 50834U 22001AH  23028.55210410  .00001103  00000-0  87365-4 0  9996,2 50834  53.2155 239.4434 0001133  91.9923 268.1199 15.08835627 58748,6917.894,95.438,540.543,538.975,0.0
50834.0,STARLINK-3331,PAYLOAD,2023-01-28 21:11:57,15.0884095,0.0001112,53.2155,237.9566,95.0078,265.1041,9.2064e-05,1.178e-05,0.0,0 STARLINK-3331,1 50834U 22001AH  23028.88330034  .00001178  00000-0  92064-4 0  9991,2 50834  53.2155 237.9566 0001112  95.0078 265.1041 15.08840950 60077,6917.877,95.437,540.512,538.973,0.0
50834.0,STARLINK-3331,PAYLOAD,2023-01-29 19:27:21,15.08838279,0.0001083,53.2154,233.7932,92.1087,268.003,6.502e-05,7.47e-06,0.0,0 STARLINK-3331,1 50834U 22001AH  23029.81066404  .00000747  00000-0  65020-4 0  9995,2 50834  53.2154 233.7932 0001083  92.1087 268.0030 15.08838279 60219,6917.886,95.438,540.5,539.001,0.0
50834.0,STARLINK-3331,PAYLOAD,2023-01-29 21:02:44,15.0883843,0.0001083,53.2155,233.4959,91.695,268.4166,6.4083e-05,7.32e-06,0.0,0 STARLINK-3331,1 50834U 22001AH  23029.87690401  .00000732  00000-0  64083-4 0  9993,2 50834  53.2155 233.4959 0001083  91.6950 268.4166 15.08838430 58949,6917.885,95.438,540.499,539.001,0.0
50834.0,STARLINK-3331,PAYLOAD,2023-01-30 00:13:30,15.08839261,0.0001069,53.2153,232.901,89.9453,270.1662,6.7754e-05,7.91e-06,0.0,0 STARLINK-3331,1 50834U 22001AH  23030.00938341  .00000791  00000-0  67754-4 0  9991,2 50834  53.2153 232.9010 0001069  89.9453 270.1662 15.08839261 58967,6917.883,95.438,540.487,539.008,0.0
50834.0,STARLINK-3331,PAYLOAD,2023-01-30 19:18:08,15.0884202,0.0001021,53.2153,229.3325,88.5822,271.5287,3.4843e-05,2.67e-06,0.0,0 STARLINK-3331,1 50834U 22001AH  23030.80426249  .00000267  00000-0  34843-4 0  9999,2 50834  53.2153 229.3325 0001021  88.5822 271.5287 15.08842020 59088,6917.874,95.437,540.446,539.033,0.0
50834.0,STARLINK-3331,PAYLOAD,2023-01-31 12:47:22,15.08842214,0.0001052,53.2155,226.0614,83.1774,276.9338,6.9171e-05,8.13e-06,0.0,0 STARLINK-3331,1 50834U 22001AH  23031.53290089  .00000813  00000-0  69171-4 0  9990,2 50834  53.2155 226.0614 0001052  83.1774 276.9338 15.08842214 60472,6917.874,95.437,540.466,539.011,0.0
50834.0,STARLINK-3331,PAYLOAD,2023-01-31 19:08:55,15.08843873,0.0001025,53.2154,224.8718,85.0048,275.1062,7.8807e-05,9.67e-06,0.0,0 STARLINK-3331,1 50834U 22001AH  23031.79785888  .00000967  00000-0  78807-4 0  9990,2 50834  53.2154 224.8718 0001025  85.0048 275.1062 15.08843873 59236,6917.869,95.437,540.443,539.024,0.0
50834.0,STARLINK-3331,PAYLOAD,2023-02-01 12:38:09,15.08841613,0.0001072,53.2148,221.6003,85.7852,274.3263,4.0677e-05,3.6e-06,0.0,0 STARLINK-3331,1 50834U 22001AH  23032.52649998  .00000360  00000-0  40677-4 0  9994,2 50834  53.2148 221.6003 0001072  85.7852 274.3263 15.08841613 59349,6917.875,95.437,540.482,538.999,0.0
50834.0,STARLINK-3331,PAYLOAD,2023-02-01 18:59:42,15.08842222,6.01e-05,53.2158,220.4108,81.155,278.951,4.1322e-05,3.7e-06,0.0,0 STARLINK-3331,1 50834U 22001AH  23032.79145956  .00000370  00000-0  41322-4 0  9997,2 50834  53.2158 220.4108 0000601  81.1550 278.9510 15.08842222 60664,6917.874,95.437,540.154,539.323,0.0
50834.0,STARLINK-3331,PAYLOAD,2023-02-02 12:28:56,15.08838666,4.76e-05,53.2162,217.1398,72.0533,288.051,2.4947e-05,1.1e-06,0.0,0 STARLINK-3331,1 50834U 22001AH  23033.52010207  .00000110  00000-0  24947-4 0  9995,2 50834  53.2162 217.1398 0000476  72.0533 288.0510 15.08838666 59491,6917.884,95.438,540.079,539.42,0.0
50834.0,STARLINK-3331,PAYLOAD,2023-02-02 22:01:15,15.088386,0.0001085,53.2134,215.3545,90.3748,269.7368,2.5924e-05,1.25e-06,0.0,0 STARLINK-3331,1 50834U 22001AH  23033.91754194  .00000125  00000-0  25924-4 0  9990,2 50834  53.2134 215.3545 0001085  90.3748 269.7368 15.08838600 60837,6917.885,95.438,540.5,538.999,0.0
50834.0,STARLINK-3331,PAYLOAD,2023-02-03 12:19:43,15.08836336,0.0001021,53.2126,212.6777,89.5493,270.5616,4.5523e-05,4.37e-06,0.0,0 STARLINK-3331,1 50834U 22001AH  23034.51370336  .00000437  00000-0  45523-4 0  9992,2 50834  53.2126 212.6777 0001021  89.5493 270.5616 15.08836336 59649,6917.892,95.438,540.463,539.05,0.0
50834.0,STARLINK-3331,PAYLOAD,2023-02-04 04:13:35,15.0883567,0.0001336,53.2138,209.7064,85.4048,274.7097,5.022e-05,5.11e-06,0.0,0 STARLINK-3331,1 50834U 22001AH  23035.17610566  .00000511  00000-0  50220-4 0  9990,2 50834  53.2138 209.7064 0001336  85.4048 274.7097 15.08835670 61022,6917.894,95.438,540.683,538.834,0.0
50834.0,STARLINK-3331,PAYLOAD,2023-02-04 12:10:31,15.08837892,0.0001108,53.2141,208.2188,92.1412,267.9707,5.0748e-05,5.2e-06,0.0,0 STARLINK-3331,1 50834U 22001AH  23035.50730410  .00000520  00000-0  50748-4 0  9993,2 50834  53.2141 208.2188 0001108  92.1412 267.9707 15.08837892 59795,6917.887,95.438,540.518,538.985,0.0
50834.0,STARLINK-3331,PAYLOAD,2023-02-04 21:42:49,15.0884246,0.0001106,53.2153,206.4349,95.8536,264.2582,7.3895e-05,8.88e-06,0.0,0 STARLINK-3331,1 50834U 22001AH  23035.90474043  .00000888  00000-0  73895-4 0  9999,2 50834  53.2153 206.4349 0001106  95.8536 264.2582 15.08842460 59857,6917.873,95.437,540.503,538.973,0.0
50834.0,STARLINK-3331,PAYLOAD,2023-02-05 12:01:18,15.08830769,0.0001095,53.216,203.759,96.0487,264.063,-3.1607e-05,-7.91e-06,0.0,0 STARLINK-3331,1 50834U 22001AH  23036.50091304 -.00000791  00000-0 -31607-4 0  9991,2 50834  53.2160 203.7590 0001095  96.0487 264.0630 15.08830769 61223,6917.909,95.438,540.531,539.016,0.0
50834.0,STARLINK-3331,PAYLOAD,2023-02-05 21:33:37,15.08836154,0.0001118,53.2159,201.9745,92.5214,267.5906,6.6453e-06,-1.82e-06,0.0,0 STARLINK-3331,1 50834U 22001AH  23036.89834923 -.00000182  00000-0  66453-5 0  9996,2 50834  53.2159 201.9745 0001118  92.5214 267.5906 15.08836154 60001,6917.892,95.438,540.531,538.984,0.0
50834.0,STARLINK-3331,PAYLOAD,2023-02-06 03:55:09,15.08835888,0.0001304,53.216,200.7851,88.5082,271.606,4.4836e-05,4.26e-06,0.0,0 STARLINK-3331,1 50834U 22001AH  23037.16331017  .00000426  00000-0  44836-4 0  9993,2 50834  53.2160 200.7851 0001304  88.5082 271.6060 15.08835888 61329,6917.893,95.438,540.66,538.856,0.0
50834.0,STARLINK-3331,PAYLOAD,2023-02-06 18:13:37,15.08849941,0.000132,53.2161,198.1086,100.0603,260.0538,6.5342e-05,7.52e-06,0.0,0 STARLINK-3331,1 50834U 22001AH  23037.75946015  .00000752  00000-0  65342-4 0  9995,2 50834  53.2161 198.1086 0001320 100.0603 260.0538 15.08849941 61414,6917.85,95.437,540.628,538.802,0.0
50834.0,STARLINK-3331,PAYLOAD,2023-02-07 03:45:56,15.08848348,0.0001035,53.2157,196.3222,79.8069,280.3039,-1.5151e-05,-5.29e-06,0.0,0 STARLINK-3331,1 50834U 22001AH  23038.15690230 -.00000529  00000-0 -15151-4 0  9992,2 50834  53.2157 196.3222 0001035  79.8069 280.3039 15.08848348 61470,6917.855,95.437,540.436,539.004,0.0
50834.0,STARLINK-3331,PAYLOAD,2023-02-07 10:07:29,15.08837566,0.0001361,53.2166,195.1353,78.77,281.3445,0.00010992,1.462e-05,0.0,0 STARLINK-3331,1 50834U 22001AH  23038.42186755  .00001462  00000-0  10992-3 0  9996,2 50834  53.2166 195.1353 0001361  78.7700 281.3445 15.08837566 60239,6917.888,95.438,540.694,538.811,0.0
50834.0,STARLINK-3331,PAYLOAD,2023-02-07 16:29:01,15.08842356,0.0001266,53.2158,193.9453,78.6976,281.4158,0.00011587,1.557e-05,0.0,0 STARLINK-3331,1 50834U 22001AH  23038.68682416  .00001557  00000-0  11587-3 0  9995,2 50834  53.2158 193.9453 0001266  78.6976 281.4158 15.08842356 60274,6917.873,95.437,540.614,538.862,0.0
50834.0,STARLINK-3331,PAYLOAD,2023-02-08 03:36:43,15.08843791,0.0001314,53.2156,191.8647,75.1104,285.0034,7.9074e-05,9.71e-06,0.0,0 STARLINK-3331,1 50834U 22001AH  23039.15050416  .00000971  00000-0  79074-4 0  9992,2 50834  53.2156 191.8647 0001314  75.1104 285.0034 15.08843791 61620,6917.869,95.437,540.643,538.825,0.0
